STARLINK-36936          
1 68012U 26039AC  26085.05701623  .00087038  00000+0  14708-2 0  9999
2 68012  42.9991 316.7417 0002671 271.6570  88.3984 15.50619146  4200
STARLINK-36967          
1 68013U 26039AD  26084.97468133  .00057688  00000+0  98136-3 0  9992
2 68013  43.0002 317.8679 0002022 272.7125  87.3504 15.50594348  4186
STARLINK-36985          
1 68014U 26039AE  26085.25002315 -.01885147  00000+0 -54017-1 0  9991
2 68014  43.0000 315.2337 0001264 282.1653 230.3993 15.38570931  5536
STARLINK-36335          
1 68015U 26040A   26085.19724990  .00497784  00000+0  30997-2 0  9992
2 68015  97.2858  34.4513 0006790 191.3476 168.7637 15.75533773  3955
STARLINK-36923          
1 68016U 26040B   26085.13302516  .00374468  00000+0  23938-2 0  9993
2 68016  97.2848  34.3870 0001572  97.5428 262.6015 15.75279057  3942
STARLINK-36568          
1 68017U 26040C   26085.13232271  .00361330  00000+0  22972-2 0  9995
2 68017  97.2868  34.3872 0002079 114.2807 245.8676 15.75442518  3948
STARLINK-36930          
1 68018U 26040D   26084.81644460  .00297693  00000+0  19167-2 0  9999
2 68018  97.2861  34.0514 0001953 123.2609 236.8844 15.75325352  3899
STARLINK-36921          
1 68019U 26040E   26085.12985201  .00378259  00000+0  24171-2 0  9995
2 68019  97.2854  34.3950 0002603 112.7821 247.3720 15.75276757  3941
STARLINK-36928          
1 68020U 26040F   26085.13091120  .00344014  00000+0  21931-2 0  9999
2 68020  97.2853  34.3913 0002222 127.2595 232.8873 15.75426464  3947
STARLINK-36858          
1 68021U 26040G   26083.53835390  .00276588  00000+0  17848-2 0  9999
2 68021  97.2853  32.8877 0001694  78.8231 281.3225 15.75331784  3704
STARLINK-36916          
1 68022U 26040H   26084.81115410  .00263429  00000+0  17035-2 0  9994
2 68022  97.2858  34.0595 0002053 110.0346 250.1140 15.75319410  3899
STARLINK-36871          
1 68023U 26040J   26085.12844147  .00379656  00000+0  24063-2 0  9995
2 68023  97.2872  34.3918 0003305 121.2754 238.8835 15.75461172  3949
STARLINK-36891          
1 68024U 26040K   26085.12773501  .00437664  00000+0  27594-2 0  9997
2 68024  97.2855  34.3937 0002423 136.2027 223.9430 15.75423805  3948
STARLINK-36378          
1 68025U 26040L   26085.31690854  .00189447  00000+0  12415-2 0  9997
2 68025  97.2858  34.5983 0001054  97.1684 262.9701 15.75218108  3973
STARLINK-36884          
1 68026U 26040M   26085.19019245  .00433133  00000+0  27378-2 0  9991
2 68026  97.2853  34.4627 0001301 105.8276 254.3133 15.75376607  3953
STARLINK-36940          
1 68027U 26040N   26085.30843839  .00377846  00000+0  24180-2 0  9995
2 68027  97.2856  34.6154 0000959 114.0950 246.0416 15.75243549  3975
