[{"OBJECT_NAME":"STARLINK-36936","OBJECT_ID":"2026-039AC","EPOCH":"2026-03-26T01:22:06.202272","MEAN_MOTION":15.50619146,"ECCENTRICITY":0.00026712,"INCLINATION":42.9991,"RA_OF_ASC_NODE":316.7417,"ARG_OF_PERICENTER":271.657,"MEAN_ANOMALY":88.3984,"EPHEMERIS_TYPE":0,"CLASSIFICATION_TYPE":"U","NORAD_CAT_ID":68012,"ELEMENT_SET_NO":999,"REV_AT_EPOCH":420,"BSTAR":0.0014707966,"MEAN_MOTION_DOT":0.00087038,"MEAN_MOTION_DDOT":0},{"OBJECT_NAME":"STARLINK-36967","OBJECT_ID":"2026-039AD","EPOCH":"2026-03-25T23:23:32.466912","MEAN_MOTION":15.50594348,"ECCENTRICITY":0.00020224,"INCLINATION":43.0002,"RA_OF_ASC_NODE":317.8679,"ARG_OF_PERICENTER":272.7125,"MEAN_ANOMALY":87.3504,"EPHEMERIS_TYPE":0,"CLASSIFICATION_TYPE":"U","NORAD_CAT_ID":68013,"ELEMENT_SET_NO":999,"REV_AT_EPOCH":418,"BSTAR":0.0009813582,"MEAN_MOTION_DOT":0.00057688,"MEAN_MOTION_DDOT":0},{"OBJECT_NAME":"STARLINK-36985","OBJECT_ID":"2026-039AE","EPOCH":"2026-03-26T06:00:02.000160","MEAN_MOTION":15.38570931,"ECCENTRICITY":0.00012647,"INCLINATION":43,"RA_OF_ASC_NODE":315.2337,"ARG_OF_PERICENTER":282.1653,"MEAN_ANOMALY":230.3993,"EPHEMERIS_TYPE":0,"CLASSIFICATION_TYPE":"U","NORAD_CAT_ID":68014,"ELEMENT_SET_NO":999,"REV_AT_EPOCH":553,"BSTAR":-0.054016762,"MEAN_MOTION_DOT":-0.01885147,"MEAN_MOTION_DDOT":0},{"OBJECT_NAME":"STARLINK-36335","OBJECT_ID":"2026-040A","EPOCH":"2026-03-26T04:44:02.391360","MEAN_MOTION":15.75533773,"ECCENTRICITY":0.00067903,"INCLINATION":97.2858,"RA_OF_ASC_NODE":34.4513,"ARG_OF_PERICENTER":191.3476,"MEAN_ANOMALY":168.7637,"EPHEMERIS_TYPE":0,"CLASSIFICATION_TYPE":"U","NORAD_CAT_ID":68015,"ELEMENT_SET_NO":999,"REV_AT_EPOCH":395,"BSTAR":0.003099677,"MEAN_MOTION_DOT":0.00497784,"MEAN_MOTION_DDOT":0},{"OBJECT_NAME":"STARLINK-36923","OBJECT_ID":"2026-040B","EPOCH":"2026-03-26T03:11:33.373824","MEAN_MOTION":15.75279057,"ECCENTRICITY":0.0001572,"INCLINATION":97.2848,"RA_OF_ASC_NODE":34.387,"ARG_OF_PERICENTER":97.5428,"MEAN_ANOMALY":262.6015,"EPHEMERIS_TYPE":0,"CLASSIFICATION_TYPE":"U","NORAD_CAT_ID":68016,"ELEMENT_SET_NO":999,"REV_AT_EPOCH":394,"BSTAR":0.0023937668,"MEAN_MOTION_DOT":0.00374468,"MEAN_MOTION_DDOT":0},{"OBJECT_NAME":"STARLINK-36568","OBJECT_ID":"2026-040C","EPOCH":"2026-03-26T03:10:32.682144","MEAN_MOTION":15.75442518,"ECCENTRICITY":0.00020799,"INCLINATION":97.2868,"RA_OF_ASC_NODE":34.3872,"ARG_OF_PERICENTER":114.2807,"MEAN_ANOMALY":245.8676,"EPHEMERIS_TYPE":0,"CLASSIFICATION_TYPE":"U","NORAD_CAT_ID":68017,"ELEMENT_SET_NO":999,"REV_AT_EPOCH":394,"BSTAR":0.0022971544,"MEAN_MOTION_DOT":0.0036133,"MEAN_MOTION_DDOT":0},{"OBJECT_NAME":"STARLINK-36930","OBJECT_ID":"2026-040D","EPOCH":"2026-03-25T19:35:40.813440","MEAN_MOTION":15.75325352,"ECCENTRICITY":0.00019532,"INCLINATION":97.2861,"RA_OF_ASC_NODE":34.0514,"ARG_OF_PERICENTER":123.2609,"MEAN_ANOMALY":236.8844,"EPHEMERIS_TYPE":0,"CLASSIFICATION_TYPE":"U","NORAD_CAT_ID":68018,"ELEMENT_SET_NO":999,"REV_AT_EPOCH":389,"BSTAR":0.0019167167,"MEAN_MOTION_DOT":0.00297693,"MEAN_MOTION_DDOT":0},{"OBJECT_NAME":"STARLINK-36921","OBJECT_ID":"2026-040E","EPOCH":"2026-03-26T03:06:59.213664","MEAN_MOTION":15.75276757,"ECCENTRICITY":0.00026038,"INCLINATION":97.2854,"RA_OF_ASC_NODE":34.395,"ARG_OF_PERICENTER":112.7821,"MEAN_ANOMALY":247.372,"EPHEMERIS_TYPE":0,"CLASSIFICATION_TYPE":"U","NORAD_CAT_ID":68019,"ELEMENT_SET_NO":999,"REV_AT_EPOCH":394,"BSTAR":0.0024171445,"MEAN_MOTION_DOT":0.00378259,"MEAN_MOTION_DDOT":0},{"OBJECT_NAME":"STARLINK-36928","OBJECT_ID":"2026-040F","EPOCH":"2026-03-26T03:08:30.727680","MEAN_MOTION":15.75426464,"ECCENTRICITY":0.00022228,"INCLINATION":97.2853,"RA_OF_ASC_NODE":34.3913,"ARG_OF_PERICENTER":127.2595,"MEAN_ANOMALY":232.8873,"EPHEMERIS_TYPE":0,"CLASSIFICATION_TYPE":"U","NORAD_CAT_ID":68020,"ELEMENT_SET_NO":999,"REV_AT_EPOCH":394,"BSTAR":0.0021931136,"MEAN_MOTION_DOT":0.00344014,"MEAN_MOTION_DDOT":0},{"OBJECT_NAME":"STARLINK-36858","OBJECT_ID":"2026-040G","EPOCH":"2026-03-24T12:55:13.776960","MEAN_MOTION":15.75331784,"ECCENTRICITY":0.00016946,"INCLINATION":97.2853,"RA_OF_ASC_NODE":32.8877,"ARG_OF_PERICENTER":78.8231,"MEAN_ANOMALY":281.3225,"EPHEMERIS_TYPE":0,"CLASSIFICATION_TYPE":"U","NORAD_CAT_ID":68021,"ELEMENT_SET_NO":999,"REV_AT_EPOCH":370,"BSTAR":0.0017848498,"MEAN_MOTION_DOT":0.00276588,"MEAN_MOTION_DDOT":0},{"OBJECT_NAME":"STARLINK-36916","OBJECT_ID":"2026-040H","EPOCH":"2026-03-25T19:28:03.714240","MEAN_MOTION":15.7531941,"ECCENTRICITY":0.00020536,"INCLINATION":97.2858,"RA_OF_ASC_NODE":34.0595,"ARG_OF_PERICENTER":110.0346,"MEAN_ANOMALY":250.114,"EPHEMERIS_TYPE":0,"CLASSIFICATION_TYPE":"U","NORAD_CAT_ID":68022,"ELEMENT_SET_NO":999,"REV_AT_EPOCH":389,"BSTAR":0.0017035138,"MEAN_MOTION_DOT":0.00263429,"MEAN_MOTION_DDOT":0},{"OBJECT_NAME":"STARLINK-36871","OBJECT_ID":"2026-040J","EPOCH":"2026-03-26T03:04:57.343008","MEAN_MOTION":15.75461172,"ECCENTRICITY":0.00033051,"INCLINATION":97.2872,"RA_OF_ASC_NODE":34.3918,"ARG_OF_PERICENTER":121.2754,"MEAN_ANOMALY":238.8835,"EPHEMERIS_TYPE":0,"CLASSIFICATION_TYPE":"U","NORAD_CAT_ID":68023,"ELEMENT_SET_NO":999,"REV_AT_EPOCH":394,"BSTAR":0.002406329,"MEAN_MOTION_DOT":0.00379656,"MEAN_MOTION_DDOT":0},{"OBJECT_NAME":"STARLINK-36891","OBJECT_ID":"2026-040K","EPOCH":"2026-03-26T03:03:56.304864","MEAN_MOTION":15.75423805,"ECCENTRICITY":0.00024231,"INCLINATION":97.2855,"RA_OF_ASC_NODE":34.3937,"ARG_OF_PERICENTER":136.2027,"MEAN_ANOMALY":223.943,"EPHEMERIS_TYPE":0,"CLASSIFICATION_TYPE":"U","NORAD_CAT_ID":68024,"ELEMENT_SET_NO":999,"REV_AT_EPOCH":394,"BSTAR":0.0027594431,"MEAN_MOTION_DOT":0.00437664,"MEAN_MOTION_DDOT":0},{"OBJECT_NAME":"STARLINK-36378","OBJECT_ID":"2026-040L","EPOCH":"2026-03-26T07:36:20.897856","MEAN_MOTION":15.75218108,"ECCENTRICITY":0.00010542,"INCLINATION":97.2858,"RA_OF_ASC_NODE":34.5983,"ARG_OF_PERICENTER":97.1684,"MEAN_ANOMALY":262.9701,"EPHEMERIS_TYPE":0,"CLASSIFICATION_TYPE":"U","NORAD_CAT_ID":68025,"ELEMENT_SET_NO":999,"REV_AT_EPOCH":397,"BSTAR":0.0012415273,"MEAN_MOTION_DOT":0.00189447,"MEAN_MOTION_DDOT":0},{"OBJECT_NAME":"STARLINK-36884","OBJECT_ID":"2026-040M","EPOCH":"2026-03-26T04:33:52.627680","MEAN_MOTION":15.75376607,"ECCENTRICITY":0.00013019,"INCLINATION":97.2853,"RA_OF_ASC_NODE":34.4627,"ARG_OF_PERICENTER":105.8276,"MEAN_ANOMALY":254.3133,"EPHEMERIS_TYPE":0,"CLASSIFICATION_TYPE":"U","NORAD_CAT_ID":68026,"ELEMENT_SET_NO":999,"REV_AT_EPOCH":395,"BSTAR":0.0027378154,"MEAN_MOTION_DOT":0.00433133,"MEAN_MOTION_DDOT":0},{"OBJECT_NAME":"STARLINK-36940","OBJECT_ID":"2026-040N","EPOCH":"2026-03-26T07:24:09.076896","MEAN_MOTION":15.75243549,"ECCENTRICITY":9.596e-5,"INCLINATION":97.2856,"RA_OF_ASC_NODE":34.6154,"ARG_OF_PERICENTER":114.095,"MEAN_ANOMALY":246.0416,"EPHEMERIS_TYPE":0,"CLASSIFICATION_TYPE":"U","NORAD_CAT_ID":68027,"ELEMENT_SET_NO":999,"REV_AT_EPOCH":397,"BSTAR":0.0024180018,"MEAN_MOTION_DOT":0.00377846,"MEAN_MOTION_DDOT":0}]
